NORAD_CAT_ID,OBJECT_NAME,OBJECT_TYPE,EPOCH,MEAN_MOTION,ECCENTRICITY,INCLINATION,RA_OF_ASC_NODE,ARG_OF_PERICENTER,MEAN_ANOMALY,BSTAR,MEAN_MOTION_DOT,MEAN_MOTION_DDOT,TLE_LINE0,TLE_LINE1,TLE_LINE2,SEMIMAJOR_AXIS,PERIOD,APOGEE,PERIGEE,DECAYED
52118.0,STARLINK-3743,PAYLOAD,2022-11-20 18:19:35,15.08839506,0.0001971,53.2197,88.2393,43.2049,316.9098,-4.057e-06,-3.53e-06,0.0,0 STARLINK-3743,1 52118U 22029AG  22324.76360855 -.00000353  00000-0 -40570-5 0  9999,2 52118  53.2197  88.2393 0001971  43.2049 316.9098 15.08839506 38887,6917.882,95.438,541.11,538.383,0.0
52118.0,STARLINK-3743,PAYLOAD,2022-11-21 08:38:04,15.08837589,0.0001916,53.2198,85.5622,40.2178,319.8955,-2.1941e-07,-2.92e-06,0.0,0 STARLINK-3743,1 52118U 22029AG  22325.35976872 -.00000292  00000-0 -21941-6 0  9991,2 52118  53.2198  85.5622 0001916  40.2178 319.8955 15.08837589 38975,6917.888000000001,95.438,541.078,538.427,0.0
52118.0,STARLINK-3743,PAYLOAD,2022-11-21 11:48:50,15.08836544,0.0001904,53.2195,84.9677,39.4796,320.6335,-4.1851e-05,-9.54e-06,0.0,0 STARLINK-3743,1 52118U 22029AG  22325.49225114 -.00000954  00000-0 -41851-4 0  9997,2 52118  53.2195  84.9677 0001904  39.4796 320.6335 15.08836544 38992,6917.891,95.438,541.073,538.439,0.0
52118.0,STARLINK-3743,PAYLOAD,2022-11-21 16:35:00,15.08832962,0.0001972,53.2193,84.0755,40.3928,319.7211,-8.5006e-06,-4.23e-06,0.0,0 STARLINK-3743,1 52118U 22029AG  22325.69097268 -.00000423  00000-0 -85006-5 0  9998,2 52118  53.2193  84.0755 0001972  40.3928 319.7211 15.08832962 39028,6917.901999999999,95.438,541.131,538.403,0.0
52118.0,STARLINK-3743,PAYLOAD,2022-11-22 11:39:37,15.08839082,0.000181,53.2193,80.5065,47.5022,312.6123,7.604600000000001e-05,9.22e-06,0.0,0 STARLINK-3743,1 52118U 22029AG  22326.48584572  .00000922  00000-0  76046-4 0  9990,2 52118  53.2193  80.5065 0001810  47.5022 312.6123 15.08839082 39145,6917.8830000000025,95.438,541.0,538.496,0.0
52118.0,STARLINK-3743,PAYLOAD,2022-11-22 14:50:23,15.08835175,0.00019,53.2189,79.9124,38.1069,322.0057,5.2565e-05,5.48e-06,0.0,0 STARLINK-3743,1 52118U 22029AG  22326.61832954  .00000548  00000-0  52565-4 0  9999,2 52118  53.2189  79.9124 0001900  38.1069 322.0057 15.08835175 39167,6917.895,95.438,541.075,538.446,0.0
52118.0,STARLINK-3743,PAYLOAD,2022-11-23 08:19:38,15.08830711,0.0001974,53.2186,76.6417,35.1392,324.973,8.3828e-06,-1.55e-06,0.0,0 STARLINK-3743,1 52118U 22029AG  22327.34697650 -.00000155  00000-0  83828-5 0  9994,2 52118  53.2186  76.6417 0001974  35.1392 324.9730 15.08830711 39272,6917.909000000002,95.438,541.139,538.408,0.0
52118.0,STARLINK-3743,PAYLOAD,2022-11-24 06:35:02,15.08838342,0.0002044,53.2189,72.4789,34.7128,325.3997,2.668e-05,1.36e-06,0.0,0 STARLINK-3743,1 52118U 22029AG  22328.27433440  .00000136  00000-0  26680-4 0  9992,2 52118  53.2189  72.4789 0002044  34.7128 325.3997 15.08838342 39416,6917.885,95.438,541.164,538.336,0.0
52118.0,STARLINK-3743,PAYLOAD,2022-11-24 11:21:11,15.08841098,0.0002069,53.2193,71.5874,35.8484,324.2647,5.287600000000001e-05,5.53e-06,0.0,0 STARLINK-3743,1 52118U 22029AG  22328.47305190  .00000553  00000-0  52876-4 0  9993,2 52118  53.2193  71.5874 0002069  35.8484 324.2647 15.08841098 39445,6917.877,95.437,541.173,538.311,0.0
52118.0,STARLINK-3743,PAYLOAD,2022-11-24 14:31:57,15.08881913,0.0001907,53.2196,70.9936,44.21,315.9044,-0.00058163,-9.544e-05,0.0,0 STARLINK-3743,1 52118U 22029AG  22328.60552630 -.00009544  00000-0 -58163-3 0  9996,2 52118  53.2196  70.9936 0001907  44.2100 315.9044 15.08881913 39469,6917.752,95.435,540.936,538.298,0.0
52118.0,STARLINK-3743,PAYLOAD,2022-11-25 00:04:17,15.08832314,0.0002064,53.2197,69.2091,35.8086,324.3045,1.9623e-05,2.4e-07,0.0,0 STARLINK-3743,1 52118U 22029AG  22329.00298012  .00000024  00000-0  19623-4 0  9993,2 52118  53.2197  69.2091 0002064  35.8086 324.3045 15.08832314 39520,6917.904,95.438,541.197,538.341,0.0
52118.0,STARLINK-3743,PAYLOAD,2022-11-25 11:11:58,15.08841152,0.0002099,53.2197,67.1273,37.536,322.5778,8.500100000000001e-05,1.065e-05,0.0,0 STARLINK-3743,1 52118U 22029AG  22329.46665346  .00001065  00000-0  85001-4 0  9990,2 52118  53.2197  67.1273 0002099  37.5360 322.5778 15.08841152 39591,6917.877,95.437,541.194,538.29,0.0
52118.0,STARLINK-3743,PAYLOAD,2022-11-25 14:22:44,15.08844679,0.0002105,53.2197,66.5321,36.5461,323.5674,0.00011138,1.485e-05,0.0,0 STARLINK-3743,1 52118U 22029AG  22329.59913020  .00001485  00000-0  11138-3 0  9994,2 52118  53.2197  66.5321 0002105  36.5461 323.5674 15.08844679 39613,6917.866,95.437,541.187,538.275,0.0
52118.0,STARLINK-3743,PAYLOAD,2022-11-25 23:55:04,15.08841398,0.0002258,53.2202,64.7496,38.2322,321.883,1.4169e-05,-6.3e-07,0.0,0 STARLINK-3743,1 52118U 22029AG  22329.99657649 -.00000063  00000-0  14169-4 0  9990,2 52118  53.2202  64.7496 0002258  38.2322 321.8830 15.08841398 39673,6917.876,95.437,541.303,538.179,0.0
52118.0,STARLINK-3743,PAYLOAD,2022-11-26 12:38:08,15.08849881,0.0002075,53.22,62.3698,33.791,326.3214,7.5123e-05,9.08e-06,0.0,0 STARLINK-3743,1 52118U 22029AG  22330.52648583  .00000908  00000-0  75123-4 0  9992,2 52118  53.2200  62.3698 0002075  33.7910 326.3214 15.08849881 39759,6917.85,95.437,541.151,538.28,0.0
52118.0,STARLINK-3743,PAYLOAD,2022-11-26 15:48:54,15.08853862,0.000196,53.2196,61.7747,39.9687,320.1449,0.00011841,1.598e-05,0.0,0 STARLINK-3743,1 52118U 22029AG  22330.65896055  .00001598  00000-0  11841-3 0  9997,2 52118  53.2196  61.7747 0001960  39.9687 320.1449 15.08853862 39770,6917.8380000000025,95.437,541.059,538.347,0.0
52118.0,STARLINK-3743,PAYLOAD,2022-11-27 06:07:22,15.08848315,0.0002339,53.2189,59.0989,44.6788,315.4393,2.8438e-05,1.64e-06,0.0,0 STARLINK-3743,1 52118U 22029AG  22331.25512520  .00000164  00000-0  28438-4 0  9995,2 52118  53.2189  59.0989 0002339  44.6788 315.4393 15.08848315 39868,6917.855,95.437,541.3380000000002,538.102,0.0
52118.0,STARLINK-3743,PAYLOAD,2022-11-27 12:28:56,15.08836483,0.0002197,53.2198,57.9088,41.7386,318.3774,-3.7531e-05,-8.86e-06,0.0,0 STARLINK-3743,1 52118U 22029AG  22331.52009376 -.00000886  00000-0 -37531-4 0  9992,2 52118  53.2198  57.9088 0002197  41.7386 318.3774 15.08836483 39902,6917.891,95.438,541.276,538.236,0.0
52118.0,STARLINK-3743,PAYLOAD,2022-11-28 12:19:43,15.08834067,0.000223,53.222,53.4513,34.3395,325.7741,-6.138e-05,-1.265e-05,0.0,0 STARLINK-3743,1 52118U 22029AG  22332.51369801 -.00001265  00000-0 -61380-4 0  9995,2 52118  53.2220  53.4513 0002230  34.3395 325.7741 15.08834067 40058,6917.899,95.438,541.306,538.221,0.0
52118.0,STARLINK-3743,PAYLOAD,2022-11-29 05:48:58,15.08828219,0.0002245,53.22,50.1796,36.0389,324.0755,1.8155e-05,1e-08,0.0,0 STARLINK-3743,1 52118U 22029AG  22333.24234030  .00000001  00000-0  18155-4 0  9998,2 52118  53.2200  50.1796 0002245  36.0389 324.0755 15.08828219 40162,6917.916,95.438,541.3340000000002,538.2280000000002,0.0
52118.0,STARLINK-3743,PAYLOAD,2022-11-29 12:10:30,15.08833442,0.0002334,53.2205,48.9916,37.9062,322.2094,6.7928e-05,7.93e-06,0.0,0 STARLINK-3743,1 52118U 22029AG  22333.50729709  .00000793  00000-0  67928-4 0  9999,2 52118  53.2205  48.9916 0002334  37.9062 322.2094 15.08833442 40208,6917.9,95.438,541.38,538.151,0.0
52118.0,STARLINK-3743,PAYLOAD,2022-11-30 05:39:45,15.08834198,0.000237,53.2199,45.7197,36.9144,323.2011,4.8236e-06,-2.12e-06,0.0,0 STARLINK-3743,1 52118U 22029AG  22334.23594331 -.00000212  00000-0  48236-5 0  9990,2 52118  53.2199  45.7197 0002370  36.9144 323.2011 15.08834198 40317,6917.898,95.438,541.403,538.124,0.0
52118.0,STARLINK-3743,PAYLOAD,2022-11-30 10:25:54,15.08837319,0.0002383,53.2203,44.828,38.9602,321.1562,1.9941e-05,2.9e-07,0.0,0 STARLINK-3743,1 52118U 22029AG  22334.43466172  .00000029  00000-0  19941-4 0  9998,2 52118  53.2203  44.8280 0002383  38.9602 321.1562 15.08837319 40340,6917.889,95.438,541.4019999999998,538.105,0.0
52118.0,STARLINK-3743,PAYLOAD,2022-12-01 05:30:32,15.08836042,0.0002389,53.2195,41.2588,39.3571,320.7594,-1.4499999999999992e-05,-5.19e-06,0.0,0 STARLINK-3743,1 52118U 22029AG  22335.22954671 -.00000519  00000-0 -14500-4 0  9994,2 52118  53.2195  41.2588 0002389  39.3571 320.7594 15.08836042 40463,6917.892,95.438,541.41,538.105,0.0
52118.0,STARLINK-3743,PAYLOAD,2022-12-02 13:18:15,15.08835591,0.0002268,53.2192,35.3101,34.9345,325.1796,-3.3853e-05,-8.27e-06,0.0,0 STARLINK-3743,1 52118U 22029AG  22336.55434919 -.00000827  00000-0 -33853-4 0  9993,2 52118  53.2192  35.3101 0002268  34.9345 325.1796 15.08835591 40664,6917.894,95.438,541.328,538.19,0.0
52118.0,STARLINK-3743,PAYLOAD,2022-12-02 21:15:11,15.08835723,0.0002223,53.2201,33.8241,36.7411,323.3733,3.3195e-05,2.4e-06,0.0,0 STARLINK-3743,1 52118U 22029AG  22336.88554771  .00000240  00000-0  33195-4 0  9994,2 52118  53.2201  33.8241 0002223  36.7411 323.3733 15.08835723 40712,6917.893,95.438,541.2959999999998,538.221,0.0
52118.0,STARLINK-3743,PAYLOAD,2022-12-03 09:58:16,15.08842922,0.0002359,53.2209,31.4458,32.8727,327.2411,2.0172e-05,3.3e-07,0.0,0 STARLINK-3743,1 52118U 22029AG  22337.41546441  .00000033  00000-0  20172-4 0  9990,2 52118  53.2209  31.4458 0002359  32.8727 327.2411 15.08842922 40794,6917.871,95.437,541.368,538.105,0.0
52118.0,STARLINK-3743,PAYLOAD,2022-12-03 11:33:39,15.088409699999998,0.0002383,53.2205,31.1488,27.7143,332.3975,5.8574e-06,-1.95e-06,0.0,0 STARLINK-3743,1 52118U 22029AG  22337.48170587 -.00000195  00000-0  58574-5 0  9999,2 52118  53.2205  31.1488 0002383  27.7143 332.3975 15.08840970 40807,6917.877,95.437,541.391,538.094,0.0
52118.0,STARLINK-3743,PAYLOAD,2022-12-04 08:13:40,15.08836728,0.0002317,53.2211,27.283,31.5695,328.5435,1.591e-05,-3.5e-07,0.0,0 STARLINK-3743,1 52118U 22029AG  22338.34282853 -.00000035  00000-0  15910-4 0  9994,2 52118  53.2211  27.2830 0002317  31.5695 328.5435 15.08836728 40931,6917.89,95.438,541.3580000000002,538.153,0.0
